#aV2022  2  7  0  0  0.00000000     288 DD+AD WGS84 FIT  NGA
## 2196  86400.00000000   300.00000000 59617 0.0000000000000
+   32     1  2  3  4  5  6  7  8  9 10 11 12 13 14 15 16 17
+         18 19 20 21 22 23 24 25 26 27 28 29 30 31 32  0  0
+          0  0  0  0  0  0  0  0  0  0  0  0  0  0  0  0  0
+          0  0  0  0  0  0  0  0  0  0  0  0  0  0  0  0  0
+          0  0  0  0  0  0  0  0  0  0  0  0  0  0  0  0  0
++         2  2  2  2  2  2  2  2  2  2  2  2  2  2  2  2  2
++         2  2  2  2  2  2  2  2  2  2  2  2  2  2  2  0  0
++         0  0  0  0  0  0  0  0  0  0  0  0  0  0  0  0  0
++         0  0  0  0  0  0  0  0  0  0  0  0  0  0  0  0  0
++         0  0  0  0  0  0  0  0  0  0  0  0  0  0  0  0  0
%c cc cc ccc ccc cccc cccc cccc cccc ccccc ccccc ccccc ccccc
%c cc cc ccc ccc cccc cccc cccc cccc ccccc ccccc ccccc ccccc
%f  0.0000000  0.000000000  0.00000000000  0.000000000000000
%f  0.0000000  0.000000000  0.00000000000  0.000000000000000
%i    0    0    0    0      0      0      0      0         0
%i    0    0    0    0      0      0      0      0         0
/*      NGA, ST. LOUIS,MO.                                  
/*   EPHEMERIS COMPUTED FROM 2 DAYS OF DATA                 
/*   EPOCHA v7 SMOOTHER                                     
/*   G2139 IERS2010 SATIGS SATAPC                           
*  2022  2  7  3  5  0.00000000
P  1  22449.022916  14477.019378  -1724.485073    437.814829                    
V  1  -2423.849185    533.670511 -31989.503425     -0.095680                    
P  2  -6465.532611 -17792.114526  19244.561238   -650.371518                    
V  2  21407.973328   8732.478407  15941.066744     -0.007546                    
P  3  12714.690880  14060.573608  18545.565606   -110.202459                    
V  3  -1148.451770  23697.298175 -16980.342154     -0.166214                    
P  4  18124.713640   5102.524976  18768.266322   -191.004695                    
V  4 -20282.952066  12516.828854  16107.163210      0.021489                    
P  5  -5815.438328 -25002.245130  -6666.245322    -70.553299                    
V  5   2443.784531  -8411.885482  30293.063610     -0.013131                    
P  6  10083.611235 -11028.219460  22033.765191    193.729724                    
V  6  23934.034610  14000.565602  -3887.810929      0.116833                    
P  7  23317.918909   3265.312272 -12378.421078    308.374112                    
V  7  12828.441608  10097.821223  25545.289069      0.030029                    
P  8   8688.310502  12417.044733 -21841.882447    -55.167446                    
V  8 -23621.522037  14387.003181   -878.202229     -0.015481                    
P  9  23599.530981  -5336.229432  10921.842356   -355.201897                    
V  9 -10572.593452   9504.636325  27278.213771      0.015144                    
P 10 -11694.591191  16062.286338 -17338.278838   -313.594445                    
V 10  -1882.539253 -22363.827689 -19576.739928     -0.102450                    
P 11  -4366.335024 -18355.458571  18697.852123    -97.474111                    
V 11  20707.975094  11693.866614  16299.754922      0.132890                    
P 12 -10435.978726 -17454.720510  16890.497570   -167.242856                    
V 12   3030.495044 -21731.093724 -20138.249524     -0.056769                    
P 13    516.912016 -16054.864858 -21277.718994    257.616805                    
V 13  24879.076792  -9625.674388   8080.183775      0.061753                    
P 14  12949.165616 -15188.047871 -17495.724657    -80.789164                    
V 14   1054.752107  22302.980720 -18651.586106     -0.047216                    
P 15 -10971.920890 -11808.367652 -21528.938702    -85.750610                    
V 15  21010.865731 -16155.120931  -1560.399271      0.028979                    
P 16    332.031973  26077.275495  -3703.822785   -466.141744                    
V 16  -3218.220372   4176.547279  31810.169467     -0.050150                    
P 17  22331.377718 -14052.651861   3691.883959    571.772653                    
V 17   4632.471569      7.435852 -31699.218338      0.051121                    
P 18 -22806.457332  -2940.540349 -13381.191472    245.475695                    
V 18 -13553.242001 -10327.093749  25274.078704     -0.078836                    
P 19  18213.110205 -15926.202287  10485.917387    115.618873                    
V 19  13420.444788  -3654.972037 -28341.185712      0.050015                    
P 20  -1261.160340 -26359.279574   4036.952065    516.819273                    
V 20   3922.167766   4541.704130  30607.433784     -0.001657                    
P 21  18363.657910  16411.436384 -10040.602807    157.599475                    
V 21 -13208.052063  -3731.678685 -27740.880693      0.006764                    
P 22 -14773.927701  17581.873609  13577.395692    209.833652                    
V 22 -15981.213014   5200.560609 -25036.795371      0.056119                    
P 23 -14803.308023   4133.819413 -21664.818410      3.705781                    
V 23  -1301.921417 -27441.615703  -4439.817776     -0.035818                    
P 24 -21233.560710 -15173.688531  -6290.682259    275.628795                    
V 24   8157.447208    417.471712 -29537.545116     -0.014557                    
P 25 -14990.154399  -4327.449153  21244.251838    281.944039                    
V 25     99.790377 -27617.488342  -5207.370974      0.054192                    
P 26  -5603.416657  23957.877270   9513.857694    181.077454                    
V 26  -4117.308619 -12116.140826  28156.924760      0.032755                    
P 27  -3099.609701  17451.974301 -19844.475944    107.794322                    
V 27 -22062.467262  11534.046003  14107.887702      0.175344                    
P 28   9442.255316 -22187.349280 -10863.294805    405.902501                    
V 28    894.656934  14629.079231 -27554.698718     -0.081364                    
P 29 -22991.327246   1409.701003  13230.322387   -477.040073                    
V 29  14363.506871  -8898.797449  25766.971047     -0.047597                    
P 30  18326.505837  -5017.508864 -18581.993045   -511.800741                    
V 30  19544.979304  13581.722233  15306.790212     -0.023931                    
P 31  -8404.595931  12778.244032  21594.683645   -163.551266                    
V 31 -23834.625566 -14181.113454   -418.930238     -0.017746                    
P 32 -19269.539384  16915.735507   6666.312152    -63.289987                    
V 32  -8654.375616   1778.919302 -30286.676907     -0.065604                    
EOF
